COSMOS 2425 (716)       
1 29670U 06062A   20176.69355083  .00000018  00000-0  00000+0 0  9991
2 29670  64.9545 267.5474 0022896 342.5014  14.9697  2.13107490105043
COSMOS 2433 (720)       
1 32275U 07052A   20177.40935382 -.00000039  00000-0  10000-3 0  9991
2 32275  65.9818  28.6574 0000805 260.9061 111.0796  2.13104261 98582
COSMOS 2432 (719)       
1 32276U 07052B   20177.22827263 -.00000038  00000-0  10000-3 0  9999
2 32276  65.9963  28.7506 0009876 340.2409 203.0208  2.13103837 98572
COSMOS 2434 (721)       
1 32393U 07065A   20177.19360537  .00000015  00000-0  00000-0 0  9995
2 32393  64.5703 266.1536 0003011 126.9469 327.1500  2.13103157 97285
COSMOS 2436 (723)       
1 32395U 07065C   20177.46679557  .00000013  00000-0  10000-3 0  9994
2 32395  64.5788 266.1948 0013191 359.4002  80.5221  2.13103078 97229
COSMOS 2456 (730)       
1 36111U 09070A   20177.49365913  .00000076  00000-0  00000-0 0  9998
2 36111  64.2313 145.8161 0006302 305.0905 192.6424  2.13102960 81957
COSMOS 2457 (733)       
1 36112U 09070B   20177.37892134  .00000075  00000-0  00000+0 0  9994
2 36112  64.2136 145.7140 0004640 196.0596 336.8747  2.13101556 81954
COSMOS 2459 (731)       
1 36400U 10007A   20177.41620898 -.00000039  00000-0  10000-3 0  9993
2 36400  65.8833  27.6262 0025712 354.5107 238.1960  2.13105262 80307
COSMOS 2461 (735)       
1 36401U 10007B   20177.48836400 -.00000039  00000-0  10000-3 0  9999
2 36401  65.8775  27.5928 0009122  65.2873 130.7685  2.13102088 80308
COSMOS 2460 (732)       
1 36402U 10007C   20177.40234325 -.00000039  00000-0  10000-3 0  9990
2 36402  65.8647  27.5554 0002171  72.3343  96.8202  2.13101453 80302
COSMOS 2464 (736)       
1 37139U 10041C   20177.32107071  .00000014  00000-0  00000-0 0  9992
2 37139  64.1722 265.5849 0025408  10.9333  44.4985  2.13100764 76375
COSMOS 2471 (701K)      
1 37372U 11009A   20177.37763519 -.00000039  00000-0  00000-0 0  9994
2 37372  65.8644  27.4971 0007599 223.4584  86.7298  2.13107471 72572
COSMOS 2476 (744)       
1 37867U 11064A   20177.36441252  .00000077  00000-0  00000-0 0  9991
2 37867  64.5300 146.8931 0021558 243.1599  56.3870  2.13101920 67299
COSMOS 2477 (745)       
1 37868U 11064B   20177.56749444  .00000078  00000-0  00000-0 0  9999
2 37868  64.5380 146.9427 0019110 244.6878  29.1563  2.13101855 67256
COSMOS 2475 (743)       
1 37869U 11064C   20177.26461738  .00000076  00000-0  00000-0 0  9992
2 37869  64.5458 146.9552 0023478 263.3752  95.4919  2.13102129 67259
COSMOS 2485 (747)       
1 39155U 13019A   20177.57078419  .00000078  00000-0  00000-0 0  9990
2 39155  64.6974 147.1571 0021892 238.7634 263.6722  2.13102002 55775
COSMOS 2492 (754)       
1 39620U 14012A   20177.39868714 -.00000039  00000-0  10000-3 0  9998
2 39620  65.7555  27.3353 0012879 333.9119  71.5659  2.13103390 48720
COSMOS 2500 (755)       
1 40001U 14032A   20176.39115395 -.00000037  00000-0  00000-0 0  9998
2 40001  65.6981  27.2855 0005140 187.4089  25.6704  2.13102934 46917
COSMOS 2501 (702K)      
1 40315U 14075A   20177.22683164  .00000014  00000-0  00000-0 0  9994
2 40315  63.8877 266.5320 0017026 206.8658  82.2703  2.13098726 43332
COSMOS 2514 (751)       
1 41330U 16008A   20176.41239669 -.00000038  00000-0  00000+0 0  9993
2 41330  65.4995  27.1559 0008131 207.3551 204.4482  2.13103035 34083
COSMOS 2516 (753)       
1 41554U 16032A   20177.49188946  .00000012  00000-0  00000-0 0  9990
2 41554  64.1107 266.5948 0013390 215.8324 194.9464  2.13101804 31710
COSMOS 2522 (752)       
1 42939U 17055A   20177.43314146  .00000012  00000-0  00000-0 0  9991
2 42939  64.3451 266.7781 0007756 240.6614 351.6139  2.13101875 21466
COSMOS 2527 (756)       
1 43508U 18053A   20177.49960343  .00000078  00000-0  00000-0 0  9997
2 43508  64.8614 147.0090 0009200 244.2644  70.8176  2.13102619 15751
COSMOS 2529 (757)       
1 43687U 18086A   20177.49929844  .00000012  00000-0  00000-0 0  9990
2 43687  64.5583 266.8996 0009897 265.9312 332.7215  2.13102087 12772
COSMOS 2534 (758)       
1 44299U 19030A   20177.41217773  .00000013  00000-0  00000-0 0  9994
2 44299  64.6274 266.7206 0012723 286.4431  20.4235  2.13102091  8419
COSMOS 2544 (759)       
1 44850U 19088A   20177.42918671  .00000077  00000-0  00000-0 0  9996
2 44850  64.8465 146.8777 0013882 268.9579  36.1823  2.13102350  4198
COSMOS 2545 (760)       
1 45358U 20018A   20177.48156771 -.00000042  00000-0  00000-0 0  9999
2 45358  64.8288  28.3243 0006866 251.7596 303.9859  2.13102956  2149
